{
  "type": "FeatureCollection",
  "features": [
    {
      "type": "Feature",
      "properties": {
        "norad_id": 55973,
        "name": "TIANMU-1 03",
        "group": "weather",
        "lat": 11.676608011267717,
        "lon": -30.533253281506063,
        "alt_km": 445.7421297169831,
        "timestamp": "2025-12-11T07:02:23.376609+00:00",
        "meta_object_name": "TIANMU-1 03",
        "meta_object_id": "2023-039A",
        "meta_epoch": "2025-12-10T20:57:41.030784",
        "meta_mean_motion": 15.40834061,
        "meta_eccentricity": 0.00044427,
        "meta_inclination": 97.5111,
        "meta_ra_of_asc_node": 147.4727,
        "meta_arg_of_pericenter": 66.626,
        "meta_mean_anomaly": 293.5453,
        "meta_ephemeris_type": 0,
        "meta_classification_type": "U",
        "meta_norad_cat_id": 55973,
        "meta_element_set_no": 999,
        "meta_rev_at_epoch": 15177,
        "meta_bstar": 0.00054207,
        "meta_mean_motion_dot": 0.00022185,
        "meta_mean_motion_ddot": 0,
        "tle_line1": "1 55973U 23039A   25344.87339156  .00022185  00000+0  54207-3 0  9994",
        "tle_line2": "2 55973  97.5111 147.4727 0004442  66.6260 293.5453 15.40834061151771"
      },
      "geometry": {
        "type": "Point",
        "coordinates": [
          -30.533253281506063,
          11.676608011267717
        ]
      }
    },
    {
      "type": "Feature",
      "properties": {
        "norad_id": 55974,
        "name": "TIANMU-1 04",
        "group": "weather",
        "lat": -77.35144866108433,
        "lon": -176.9312424768709,
        "alt_km": 452.6436448409604,
        "timestamp": "2025-12-11T07:02:23.376622+00:00",
        "meta_object_name": "TIANMU-1 04",
        "meta_object_id": "2023-039B",
        "meta_epoch": "2025-12-10T22:02:10.110912",
        "meta_mean_motion": 15.41171338,
        "meta_eccentricity": 0.00051228,
        "meta_inclination": 97.5043,
        "meta_ra_of_asc_node": 146.7106,
        "meta_arg_of_pericenter": 61.9533,
        "meta_mean_anomaly": 298.2231,
        "meta_ephemeris_type": 0,
        "meta_classification_type": "U",
        "meta_norad_cat_id": 55974,
        "meta_element_set_no": 999,
        "meta_rev_at_epoch": 15178,
        "meta_bstar": 0.00052783147,
        "meta_mean_motion_dot": 0.00021844,
        "meta_mean_motion_ddot": 0,
        "tle_line1": "1 55974U 23039B   25344.91817258  .00021844  00000+0  52783-3 0  9992",
        "tle_line2": "2 55974  97.5043 146.7106 0005122  61.9533 298.2231 15.41171338151785"
      },
      "geometry": {
        "type": "Point",
        "coordinates": [
          -176.9312424768709,
          -77.35144866108433
        ]
      }
    },
    {
      "type": "Feature",
      "properties": {
        "norad_id": 55975,
        "name": "TIANMU-1 05",
        "group": "weather",
        "lat": -45.48815136744326,
        "lon": 155.29904607233885,
        "alt_km": 452.3623886351925,
        "timestamp": "2025-12-11T07:02:23.376633+00:00",
        "meta_object_name": "TIANMU-1 05",
        "meta_object_id": "2023-039C",
        "meta_epoch": "2025-12-10T20:19:43.112928",
        "meta_mean_motion": 15.4079102,
        "meta_eccentricity": 0.00043632,
        "meta_inclination": 97.509,
        "meta_ra_of_asc_node": 147.1298,
        "meta_arg_of_pericenter": 83.6668,
        "meta_mean_anomaly": 276.5075,
        "meta_ephemeris_type": 0,
        "meta_classification_type": "U",
        "meta_norad_cat_id": 55975,
        "meta_element_set_no": 999,
        "meta_rev_at_epoch": 15175,
        "meta_bstar": 0.00051698406,
        "meta_mean_motion_dot": 0.00021121,
        "meta_mean_motion_ddot": 0,
        "tle_line1": "1 55975U 23039C   25344.84702677  .00021121  00000+0  51698-3 0  9995",
        "tle_line2": "2 55975  97.5090 147.1298 0004363  83.6668 276.5075 15.40791020151758"
      },
      "geometry": {
        "type": "Point",
        "coordinates": [
          155.29904607233885,
          -45.48815136744326
        ]
      }
    },
    {
      "type": "Feature",
      "properties": {
        "norad_id": 55976,
        "name": "TIANMU-1 06",
        "group": "weather",
        "lat": -82.20833561056803,
        "lon": -106.5509770398114,
        "alt_km": 452.9682235618411,
        "timestamp": "2025-12-11T07:02:23.376643+00:00",
        "meta_object_name": "TIANMU-1 06",
        "meta_object_id": "2023-039D",
        "meta_epoch": "2025-12-10T22:05:23.322912",
        "meta_mean_motion": 15.41224056,
        "meta_eccentricity": 0.00046976,
        "meta_inclination": 97.51,
        "meta_ra_of_asc_node": 147.6688,
        "meta_arg_of_pericenter": 78.9648,
        "meta_mean_anomaly": 281.2126,
        "meta_ephemeris_type": 0,
        "meta_classification_type": "U",
        "meta_norad_cat_id": 55976,
        "meta_element_set_no": 999,
        "meta_rev_at_epoch": 15178,
        "meta_bstar": 0.00052796376,
        "meta_mean_motion_dot": 0.00021887,
        "meta_mean_motion_ddot": 0,
        "tle_line1": "1 55976U 23039D   25344.92040883  .00021887  00000+0  52796-3 0  9998",
        "tle_line2": "2 55976  97.5100 147.6688 0004697  78.9648 281.2126 15.41224056151788"
      },
      "geometry": {
        "type": "Point",
        "coordinates": [
          -106.5509770398114,
          -82.20833561056803
        ]
      }
    },
    {
      "type": "Feature",
      "properties": {
        "norad_id": 56232,
        "name": "FENGYUN 3G",
        "group": "weather",
        "lat": -49.94528176062792,
        "lon": 147.45033414645718,
        "alt_km": 414.94903614804934,
        "timestamp": "2025-12-11T07:02:23.376654+00:00",
        "meta_object_name": "FENGYUN 3G",
        "meta_object_id": "2023-055A",
        "meta_epoch": "2025-12-10T22:09:26.680608",
        "meta_mean_motion": 15.53467964,
        "meta_eccentricity": 0.00092928,
        "meta_inclination": 49.9931,
        "meta_ra_of_asc_node": 236.8282,
        "meta_arg_of_pericenter": 139.9753,
        "meta_mean_anomaly": 220.1901,
        "meta_ephemeris_type": 0,
        "meta_classification_type": "U",
        "meta_norad_cat_id": 56232,
        "meta_element_set_no": 999,
        "meta_rev_at_epoch": 15074,
        "meta_bstar": 0.00068245457,
        "meta_mean_motion_dot": 0.00044011,
        "meta_mean_motion_ddot": 0,
        "tle_line1": "1 56232U 23055A   25344.92322547  .00044011  00000+0  68245-3 0  9992",
        "tle_line2": "2 56232  49.9931 236.8282 0009292 139.9753 220.1901 15.53467964150747"
      },
      "geometry": {
        "type": "Point",
        "coordinates": [
          147.45033414645718,
          -49.94528176062792
        ]
      }
    },
    {
      "type": "Feature",
      "properties": {
        "norad_id": 57166,
        "name": "METEOR-M2 3",
        "group": "weather",
        "lat": 35.888704501048515,
        "lon": 32.54304815438197,
        "alt_km": 806.6119045293672,
        "timestamp": "2025-12-11T07:02:23.376690+00:00",
        "meta_object_name": "METEOR-M2 3",
        "meta_object_id": "2023-091A",
        "meta_epoch": "2025-12-10T22:26:17.369664",
        "meta_mean_motion": 14.24025773,
        "meta_eccentricity": 0.00040122,
        "meta_inclination": 98.638,
        "meta_ra_of_asc_node": 38.5058,
        "meta_arg_of_pericenter": 13.8982,
        "meta_mean_anomaly": 346.2307,
        "meta_ephemeris_type": 0,
        "meta_classification_type": "U",
        "meta_norad_cat_id": 57166,
        "meta_element_set_no": 999,
        "meta_rev_at_epoch": 12772,
        "meta_bstar": 3.5482358e-05,
        "meta_mean_motion_dot": 3.8e-07,
        "meta_mean_motion_ddot": 0,
        "tle_line1": "1 57166U 23091A   25344.93492326  .00000038  00000+0  35482-4 0  9992",
        "tle_line2": "2 57166  98.6380  38.5058 0004012  13.8982 346.2307 14.24025773127727"
      },
      "geometry": {
        "type": "Point",
        "coordinates": [
          32.54304815438197,
          35.888704501048515
        ]
      }
    },
    {
      "type": "Feature",
      "properties": {
        "norad_id": 57399,
        "name": "TIANMU-1 07",
        "group": "weather",
        "lat": 42.14461550263429,
        "lon": 28.523946793246942,
        "alt_km": 475.47783159518895,
        "timestamp": "2025-12-11T07:02:23.376702+00:00",
        "meta_object_name": "TIANMU-1 07",
        "meta_object_id": "2023-101A",
        "meta_epoch": "2025-12-10T22:59:45.362688",
        "meta_mean_motion": 15.28027801,
        "meta_eccentricity": 0.00056107,
        "meta_inclination": 97.2878,
        "meta_ra_of_asc_node": 34.8469,
        "meta_arg_of_pericenter": 86.1088,
        "meta_mean_anomaly": 274.0793,
        "meta_ephemeris_type": 0,
        "meta_classification_type": "U",
        "meta_norad_cat_id": 57399,
        "meta_element_set_no": 999,
        "meta_rev_at_epoch": 13288,
        "meta_bstar": 0.00041801844,
        "meta_mean_motion_dot": 0.00011366,
        "meta_mean_motion_ddot": 0,
        "tle_line1": "1 57399U 23101A   25344.95816392  .00011366  00000+0  41802-3 0  9995",
        "tle_line2": "2 57399  97.2878  34.8469 0005610  86.1088 274.0793 15.28027801132881"
      },
      "geometry": {
        "type": "Point",
        "coordinates": [
          28.523946793246942,
          42.14461550263429
        ]
      }
    }
  ]
}